NORAD_CAT_ID,OBJECT_NAME,OBJECT_TYPE,EPOCH,MEAN_MOTION,ECCENTRICITY,INCLINATION,RA_OF_ASC_NODE,ARG_OF_PERICENTER,MEAN_ANOMALY,BSTAR,MEAN_MOTION_DOT,MEAN_MOTION_DDOT,TLE_LINE0,TLE_LINE1,TLE_LINE2,SEMIMAJOR_AXIS,PERIOD,APOGEE,PERIGEE,DECAYED
53134.0,STARLINK-4150,PAYLOAD,2022-07-30 22:00:00,15.73217369,0.0001531999999999,53.218,340.8975,43.238,324.2445,0.00017041,0.0002338,0.0,0 STARLINK-4150,1 53134U 22083C   22211.91667824  .00023380  00000-0  17041-3 0  9994,2 53134  53.2180 340.8975 0001532  43.2380 324.2445 15.73217369  1306,6727.846,91.532,350.741,348.68,0.0
53134.0,STARLINK-4150,PAYLOAD,2022-07-31 06:00:02,15.73234185,0.0001476,53.2184,339.2459,52.3928,44.1129,-0.00032903,-0.0004661,0.0,0 STARLINK-4150,1 53134U 22083C   22212.25002315 -.00046610  00000-0 -32903-3 0  9997,2 53134  53.2184 339.2459 0001476  52.3928  44.1129 15.73234185  2803,6727.7980000000025,91.531,350.656,348.67,0.0
53134.0,STARLINK-4150,PAYLOAD,2022-07-31 14:00:01,15.73212715,0.0001715,53.2185,337.5982,50.3709,135.0182,-0.00034851,-0.00049274,0.0,0 STARLINK-4150,1 53134U 22083C   22212.58334491 -.00049274  00000-0 -34851-3 0  9999,2 53134  53.2185 337.5982 0001715  50.3709 135.0182 15.73212715  1305,6727.859,91.532,350.87800000000016,348.57,0.0
53134.0,STARLINK-4150,PAYLOAD,2022-07-31 22:00:00,15.73178348,0.0001672,53.2181,335.9489,42.7846,231.5362,-0.00015646,-0.000225,0.0,0 STARLINK-4150,1 53134U 22083C   22212.91667824 -.00022500  00000-0 -15646-3 0  9999,2 53134  53.2181 335.9489 0001672  42.7846 231.5362 15.73178348  1309,6727.956999999999,91.534,350.94699999999995,348.69699999999995,0.0
53134.0,STARLINK-4150,PAYLOAD,2022-08-01 04:00:00,15.73142329,0.0001484,53.2183,334.7105,46.2385,204.7608,0.00046065,0.00064366,0.0,0 STARLINK-4150,1 53134U 22083C   22213.16667824  .00064366  00000-0  46065-3 0  9990,2 53134  53.2183 334.7105 0001484  46.2385 204.7608 15.73142329  2947,6728.06,91.537,350.923,348.926,0.0
53134.0,STARLINK-4150,PAYLOAD,2022-08-01 14:00:01,15.7320084,0.0001651,53.218,332.6506,43.4077,48.7069,-5.1492e-07,-6.93e-06,0.0,0 STARLINK-4150,1 53134U 22083C   22213.58334491 -.00000693  00000-0 -51492-6 0  9995,2 53134  53.2180 332.6506 0001651  43.4077  48.7069 15.73200840  1308,6727.893,91.533,350.869,348.647,0.0
53134.0,STARLINK-4150,PAYLOAD,2022-08-01 22:00:00,15.73225012,0.0001686,53.2179,331.0011,40.5759,140.463,-2.2126e-06,-9.32e-06,0.0,0 STARLINK-4150,1 53134U 22083C   22213.91667824 -.00000932  00000-0 -22126-5 0  9998,2 53134  53.2179 331.0011 0001686  40.5759 140.4630 15.73225012  3060,6727.824000000001,91.532,350.8230000000001,348.555,0.0
53134.0,STARLINK-4150,PAYLOAD,2022-08-02 14:00:01,15.73220794,0.0001895,53.2182,327.7021,44.6744,314.2933,-0.00054636,-0.00076677,0.0,0 STARLINK-4150,1 53134U 22083C   22214.58334491 -.00076677  00000-0 -54636-3 0  9991,2 53134  53.2182 327.7021 0001895  44.6744 314.2933 15.73220794  3168,6727.8359999999975,91.532,350.976,348.426,0.0
53134.0,STARLINK-4150,PAYLOAD,2022-08-03 04:00:00,15.731380499999998,0.0001665,53.2179,324.8141,43.6528,20.9208,0.0005121,0.00071675,0.0,0 STARLINK-4150,1 53134U 22083C   22215.16667824  .00071675  00000-0  51210-3 0  9991,2 53134  53.2179 324.8141 0001665  43.6528  20.9208 15.73138050  3258,6728.071999999999,91.537,351.057,348.81699999999995,0.0
53134.0,STARLINK-4150,PAYLOAD,2022-08-03 14:00:01,15.73193267,0.0001902,53.2176,322.7543,40.4147,225.2773,8.2099e-05,0.00010913,0.0,0 STARLINK-4150,1 53134U 22083C   22215.58334491  .00010913  00000-0  82099-4 0  9996,2 53134  53.2176 322.7543 0001902  40.4147 225.2773 15.73193267  1306,6727.9140000000025,91.534,351.059,348.5,0.0
53134.0,STARLINK-4150,PAYLOAD,2022-08-03 20:00:01,15.73208063,0.0001908,53.2173,321.5172,36.8014,205.5846,0.00025122,0.00034796,0.0,0 STARLINK-4150,1 53134U 22083C   22215.83334491  .00034796  00000-0  25122-3 0  9992,2 53134  53.2173 321.5172 0001908  36.8014 205.5846 15.73208063  3367,6727.871999999999,91.533,351.021,348.454,0.0
53134.0,STARLINK-4150,PAYLOAD,2022-08-03 22:00:01,15.73230185,0.0001871,53.2175,321.1043,37.5376,317.1449,-1.2458e-05,-2.371e-05,0.0,0 STARLINK-4150,1 53134U 22083C   22215.91668981 -.00002371  00000-0 -12458-4 0  9990,2 53134  53.2175 321.1043 0001871  37.5376 317.1449 15.73230185  1301,6727.809,91.531,350.93300000000005,348.415,0.0
53134.0,STARLINK-4150,PAYLOAD,2022-08-04 12:00:00,15.73235332,0.0001835,53.2179,318.2175,35.9253,24.3872,-0.00039351,-0.0005557,0.0,0 STARLINK-4150,1 53134U 22083C   22216.50001157 -.00055570  00000-0 -39351-3 0  9991,2 53134  53.2179 318.2175 0001835  35.9253  24.3872 15.73235332  3469,6727.794,91.531,350.894,348.425,0.0
53134.0,STARLINK-4150,PAYLOAD,2022-08-04 14:00:01,15.73196985,0.0001939,53.2179,317.8055,34.195,138.3666,0.00010844,0.00014623,0.0,0 STARLINK-4150,1 53134U 22083C   22216.58334491  .00014623  00000-0  10844-3 0  9997,2 53134  53.2179 317.8055 0001939  34.1950 138.3666 15.73196985  1309,6727.904,91.533,351.0730000000001,348.464,0.0
53134.0,STARLINK-4150,PAYLOAD,2022-08-04 20:00:01,15.73241723,0.0002008999999999,53.2176,316.5684,33.3366,115.915,-0.00051067,-0.00071815,0.0,0 STARLINK-4150,1 53134U 22083C   22216.83334491 -.00071815  00000-0 -51067-3 0  9995,2 53134  53.2176 316.5684 0002009  33.3366 115.9150 15.73241723  3527,6727.776,91.531,350.99300000000005,348.29,0.0
53134.0,STARLINK-4150,PAYLOAD,2022-08-04 22:00:00,15.7324986,0.0001955999999999,53.2176,316.1553,34.921,226.5666,-0.00078891,-0.00110145,0.0,0 STARLINK-4150,1 53134U 22083C   22216.91667824 -.00110145  00000-0 -78891-3 0  9997,2 53134  53.2176 316.1553 0001956  34.9210 226.5666 15.73249860  1308,6727.753000000002,91.53,350.934,348.302,0.0
53134.0,STARLINK-4150,PAYLOAD,2022-08-05 12:00:00,15.73208748,0.0002085,53.2174,313.2692,38.0343,289.0808,2.1175e-05,2.353e-05,0.0,0 STARLINK-4150,1 53134U 22083C   22217.50001157  .00002353  00000-0  21175-4 0  9997,2 53134  53.2174 313.2692 0002085  38.0343 289.0808 15.73208748  3623,6727.87,91.533,351.13800000000015,348.332,0.0
53134.0,STARLINK-4150,PAYLOAD,2022-08-05 14:00:01,15.73202711,0.000213,53.2174,312.8573,37.0349,42.3812,0.00016741,0.00022942,0.0,0 STARLINK-4150,1 53134U 22083C   22217.58335648  .00022942  00000-0  16741-3 0  9998,2 53134  53.2174 312.8573 0002130  37.0349  42.3812 15.73202711  1304,6727.887,91.533,351.185,348.319,0.0
53134.0,STARLINK-4150,PAYLOAD,2022-08-05 22:00:00,15.73260055,0.0002023,53.2173,311.2068,33.3361,134.9541,-0.00075582,-0.00105655,0.0,0 STARLINK-4150,1 53134U 22083C   22217.91667824 -.00105655  00000-0 -75582-3 0  9992,2 53134  53.2173 311.2068 0002023  33.3361 134.9541 15.73260055  1301,6727.724,91.53,350.95,348.228,0.0
53134.0,STARLINK-4150,PAYLOAD,2022-08-06 14:00:01,15.73219524,0.0002133999999999,53.2178,307.9086,30.2395,315.925,-1.8647e-05,-3.24e-05,0.0,0 STARLINK-4150,1 53134U 22083C   22218.58334491 -.00003240  00000-0 -18647-4 0  9994,2 53134  53.2178 307.9086 0002134  30.2395 315.9250 15.73219524  1307,6727.84,91.532,351.14,348.269,0.0
53134.0,STARLINK-4150,PAYLOAD,2022-08-06 20:00:01,15.73244649,0.0002078,53.2175,306.671,25.5074,297.3649,-0.00060089,-0.00084281,0.0,0 STARLINK-4150,1 53134U 22083C   22218.83334491 -.00084281  00000-0 -60089-3 0  9992,2 53134  53.2175 306.6710 0002078  25.5074 297.3649 15.73244649  3833,6727.768,91.531,351.031,348.235,0.0
53134.0,STARLINK-4150,PAYLOAD,2022-08-06 22:00:00,15.73219213,0.0001998,53.2176,306.258,25.6198,49.4984,-0.00036722,-0.00051887,0.0,0 STARLINK-4150,1 53134U 22083C   22218.91667824 -.00051887  00000-0 -36722-3 0  9993,2 53134  53.2176 306.2580 0001998  25.6198  49.4984 15.73219213  1300,6727.84,91.532,351.05,348.361,0.0
53134.0,STARLINK-4150,PAYLOAD,2022-08-07 04:00:00,15.73160636,0.0001872,53.2176,305.02,27.6421,24.1703,0.00046973,0.00065711,0.0,0 STARLINK-4150,1 53134U 22083C   22219.16667824  .00065711  00000-0  46973-3 0  9999,2 53134  53.2176 305.0200 0001872  27.6421  24.1703 15.73160636  3886,6728.007,91.535,351.13199999999995,348.61300000000006,0.0
53134.0,STARLINK-4150,PAYLOAD,2022-08-07 12:55:45,15.73213782,0.0001889999999999,53.2177,303.1784,32.6706,327.4431,4.6623e-05,5.931e-05,0.0,0 STARLINK-4150,1 53134U 22083C   22219.53872338  .00005931  00000-0  46623-4 0  9999,2 53134  53.2177 303.1784 0001890  32.6706 327.4431 15.73213782  3322,6727.856,91.532,350.992,348.449,0.0
53134.0,STARLINK-4150,PAYLOAD,2022-08-07 20:00:01,15.7321508,0.0002091,53.2171,301.7227,18.8922,210.8016,-0.00015041,-0.00021691,0.0,0 STARLINK-4150,1 53134U 22083C   22219.83334491 -.00021691  00000-0 -15041-3 0  9997,2 53134  53.2171 301.7227 0002091  18.8922 210.8016 15.73215080  3992,6727.852,91.532,351.124,348.31,0.0
53134.0,STARLINK-4150,PAYLOAD,2022-08-07 22:00:00,15.732019400000002,0.0001994,53.2174,301.3097,19.0587,322.8731,5.6088e-05,7.258e-05,0.0,0 STARLINK-4150,1 53134U 22083C   22219.91667824  .00007258  00000-0  56088-4 0  9993,2 53134  53.2174 301.3097 0001994  19.0587 322.8731 15.73201940  1308,6727.89,91.533,351.096,348.413,0.0
53134.0,STARLINK-4150,PAYLOAD,2022-08-08 04:00:00,15.732056900000002,0.0001883,53.2174,300.0714,18.779,299.8552,0.00038384,0.00053608,0.0,0 STARLINK-4150,1 53134U 22083C   22220.16667824  .00053608  00000-0  38384-3 0  9990,2 53134  53.2174 300.0714 0001883  18.7790 299.8552 15.73205690  4043,6727.879,91.533,351.011,348.477,0.0
53134.0,STARLINK-4150,PAYLOAD,2022-08-08 14:00:01,15.73195127,0.0002223,53.2178,298.0119,14.8319,145.1013,0.00046365,0.00064945,0.0,0 STARLINK-4150,1 53134U 22083C   22220.58335648  .00064945  00000-0  46365-3 0  9996,2 53134  53.2178 298.0119 0002223  14.8319 145.1013 15.73195127  1309,6727.909000000002,91.533,351.27,348.278,0.0
53134.0,STARLINK-4150,PAYLOAD,2022-08-08 20:00:01,15.73347443,0.0002157,53.2167,296.772,20.5297,116.1035,-0.0017387,-0.0023937,0.0,0 STARLINK-4150,1 53134U 22083C   22220.83335648 -.00239370  00000-0 -17387-2 0  9993,2 53134  53.2167 296.7720 0002157  20.5297 116.1035 15.73347443  4153,6727.475,91.525,350.791,347.889,0.0
